CCSDS_OMM_VERS = 2.0
CREATION_DATE  = 
ORIGINATOR     = 

OBJECT_NAME    = STARLINK-36738
OBJECT_ID      = 2026-034R
CENTER_NAME    = EARTH
REF_FRAME      = TEME
TIME_SYSTEM    = UTC
MEAN_ELEMENT_THEORY = SGP/SGP4

EPOCH          = 2026-03-08T00:19:21.768960
MEAN_MOTION    = 15.80931722
ECCENTRICITY   = .0002141
INCLINATION    = 53.1595
RA_OF_ASC_NODE = 219.6239
ARG_OF_PERICENTER = 34.7837
MEAN_ANOMALY   = 325.3325

EPHEMERIS_TYPE = 0
CLASSIFICATION_TYPE = U
NORAD_CAT_ID   = 67865
ELEMENT_SET_NO = 999
REV_AT_EPOCH   = 367
BSTAR          = .10549E-2
MEAN_MOTION_DOT = .213304E-2
MEAN_MOTION_DDOT = 0

CCSDS_OMM_VERS = 2.0
CREATION_DATE  = 
ORIGINATOR     = 

OBJECT_NAME    = STARLINK-36780
OBJECT_ID      = 2026-034S
CENTER_NAME    = EARTH
REF_FRAME      = TEME
TIME_SYSTEM    = UTC
MEAN_ELEMENT_THEORY = SGP/SGP4

EPOCH          = 2026-03-08T00:18:16.858368
MEAN_MOTION    = 15.80938632
ECCENTRICITY   = .0002507
INCLINATION    = 53.1599
RA_OF_ASC_NODE = 219.6175
ARG_OF_PERICENTER = 32.4318
MEAN_ANOMALY   = 327.6858

EPHEMERIS_TYPE = 0
CLASSIFICATION_TYPE = U
NORAD_CAT_ID   = 67866
ELEMENT_SET_NO = 999
REV_AT_EPOCH   = 367
BSTAR          = .10556E-2
MEAN_MOTION_DOT = .213524E-2
MEAN_MOTION_DDOT = 0

CCSDS_OMM_VERS = 2.0
CREATION_DATE  = 
ORIGINATOR     = 

OBJECT_NAME    = STARLINK-36761
OBJECT_ID      = 2026-034T
CENTER_NAME    = EARTH
REF_FRAME      = TEME
TIME_SYSTEM    = UTC
MEAN_ELEMENT_THEORY = SGP/SGP4

EPOCH          = 2026-03-08T03:19:16.476960
MEAN_MOTION    = 15.80938750
ECCENTRICITY   = .0001073
INCLINATION    = 53.1596
RA_OF_ASC_NODE = 218.9793
ARG_OF_PERICENTER = 93.3571
MEAN_ANOMALY   = 266.7575

EPHEMERIS_TYPE = 0
CLASSIFICATION_TYPE = U
NORAD_CAT_ID   = 67867
ELEMENT_SET_NO = 999
REV_AT_EPOCH   = 369
BSTAR          = .14927E-2
MEAN_MOTION_DOT = .305509E-2
MEAN_MOTION_DDOT = 0

CCSDS_OMM_VERS = 2.0
CREATION_DATE  = 
ORIGINATOR     = 

OBJECT_NAME    = STARLINK-36762
OBJECT_ID      = 2026-034U
CENTER_NAME    = EARTH
REF_FRAME      = TEME
TIME_SYSTEM    = UTC
MEAN_ELEMENT_THEORY = SGP/SGP4

EPOCH          = 2026-03-08T00:16:07.044960
MEAN_MOTION    = 15.80970639
ECCENTRICITY   = .0001231
INCLINATION    = 53.1596
RA_OF_ASC_NODE = 219.6083
ARG_OF_PERICENTER = 38.7674
MEAN_ANOMALY   = 321.3437

EPHEMERIS_TYPE = 0
CLASSIFICATION_TYPE = U
NORAD_CAT_ID   = 67868
ELEMENT_SET_NO = 999
REV_AT_EPOCH   = 367
BSTAR          = .1393E-2
MEAN_MOTION_DOT = .284769E-2
MEAN_MOTION_DDOT = 0

CCSDS_OMM_VERS = 2.0
CREATION_DATE  = 
ORIGINATOR     = 

OBJECT_NAME    = STARLINK-36779
OBJECT_ID      = 2026-034V
CENTER_NAME    = EARTH
REF_FRAME      = TEME
TIME_SYSTEM    = UTC
MEAN_ELEMENT_THEORY = SGP/SGP4

EPOCH          = 2026-03-07T22:43:59.759616
MEAN_MOTION    = 15.81005295
ECCENTRICITY   = .00012071
INCLINATION    = 53.1596
RA_OF_ASC_NODE = 219.9195
ARG_OF_PERICENTER = 63.2475
MEAN_ANOMALY   = 296.8672

EPHEMERIS_TYPE = 0
CLASSIFICATION_TYPE = U
NORAD_CAT_ID   = 67869
ELEMENT_SET_NO = 999
REV_AT_EPOCH   = 366
BSTAR          = .170501E-2
MEAN_MOTION_DOT = .35204E-2
MEAN_MOTION_DDOT = 0

CCSDS_OMM_VERS = 2.0
CREATION_DATE  = 
ORIGINATOR     = 

OBJECT_NAME    = STARLINK-36770
OBJECT_ID      = 2026-034W
CENTER_NAME    = EARTH
REF_FRAME      = TEME
TIME_SYSTEM    = UTC
MEAN_ELEMENT_THEORY = SGP/SGP4

EPOCH          = 2026-03-08T00:12:51.794784
MEAN_MOTION    = 15.81002856
ECCENTRICITY   = .0001659
INCLINATION    = 53.1600
RA_OF_ASC_NODE = 219.5917
ARG_OF_PERICENTER = 82.7725
MEAN_ANOMALY   = 277.3486

EPHEMERIS_TYPE = 0
CLASSIFICATION_TYPE = U
NORAD_CAT_ID   = 67870
ELEMENT_SET_NO = 999
REV_AT_EPOCH   = 367
BSTAR          = .12483E-2
MEAN_MOTION_DOT = .254587E-2
MEAN_MOTION_DDOT = 0

CCSDS_OMM_VERS = 2.0
CREATION_DATE  = 
ORIGINATOR     = 

OBJECT_NAME    = STARLINK-36769
OBJECT_ID      = 2026-034X
CENTER_NAME    = EARTH
REF_FRAME      = TEME
TIME_SYSTEM    = UTC
MEAN_ELEMENT_THEORY = SGP/SGP4

EPOCH          = 2026-03-07T21:11:53.530080
MEAN_MOTION    = 15.81008840
ECCENTRICITY   = .00001724
INCLINATION    = 53.1599
RA_OF_ASC_NODE = 220.2313
ARG_OF_PERICENTER = 110.0895
MEAN_ANOMALY   = 250.0146

EPHEMERIS_TYPE = 0
CLASSIFICATION_TYPE = U
NORAD_CAT_ID   = 67871
ELEMENT_SET_NO = 999
REV_AT_EPOCH   = 365
BSTAR          = .17837029E-2
MEAN_MOTION_DOT = .369159E-2
MEAN_MOTION_DDOT = 0

CCSDS_OMM_VERS = 2.0
CREATION_DATE  = 
ORIGINATOR     = 

OBJECT_NAME    = STARLINK-36786
OBJECT_ID      = 2026-034Y
CENTER_NAME    = EARTH
REF_FRAME      = TEME
TIME_SYSTEM    = UTC
MEAN_ELEMENT_THEORY = SGP/SGP4

EPOCH          = 2026-03-08T03:13:52.538304
MEAN_MOTION    = 15.80954466
ECCENTRICITY   = .0001391
INCLINATION    = 53.1597
RA_OF_ASC_NODE = 218.9539
ARG_OF_PERICENTER = 56.1524
MEAN_ANOMALY   = 303.9631

EPHEMERIS_TYPE = 0
CLASSIFICATION_TYPE = U
NORAD_CAT_ID   = 67872
ELEMENT_SET_NO = 999
REV_AT_EPOCH   = 369
BSTAR          = .16638E-2
MEAN_MOTION_DOT = .342321E-2
MEAN_MOTION_DDOT = 0

CCSDS_OMM_VERS = 2.0
CREATION_DATE  = 
ORIGINATOR     = 

OBJECT_NAME    = STARLINK-36783
OBJECT_ID      = 2026-034Z
CENTER_NAME    = EARTH
REF_FRAME      = TEME
TIME_SYSTEM    = UTC
MEAN_ELEMENT_THEORY = SGP/SGP4

EPOCH          = 2026-03-07T22:39:40.186368
MEAN_MOTION    = 15.81029525
ECCENTRICITY   = .00012923
INCLINATION    = 53.1597
RA_OF_ASC_NODE = 219.8983
ARG_OF_PERICENTER = 48.8890
MEAN_ANOMALY   = 311.2244

EPHEMERIS_TYPE = 0
CLASSIFICATION_TYPE = U
NORAD_CAT_ID   = 67873
ELEMENT_SET_NO = 999
REV_AT_EPOCH   = 366
BSTAR          = .17661597E-2
MEAN_MOTION_DOT = .365683E-2
MEAN_MOTION_DDOT = 0

CCSDS_OMM_VERS = 2.0
CREATION_DATE  = 
ORIGINATOR     = 

OBJECT_NAME    = STARLINK-36730
OBJECT_ID      = 2026-034AA
CENTER_NAME    = EARTH
REF_FRAME      = TEME
TIME_SYSTEM    = UTC
MEAN_ELEMENT_THEORY = SGP/SGP4

EPOCH          = 2026-03-08T00:09:38.182752
MEAN_MOTION    = 15.80913216
ECCENTRICITY   = .0000678
INCLINATION    = 53.1601
RA_OF_ASC_NODE = 219.5772
ARG_OF_PERICENTER = 93.0388
MEAN_ANOMALY   = 267.0712

EPHEMERIS_TYPE = 0
CLASSIFICATION_TYPE = U
NORAD_CAT_ID   = 67874
ELEMENT_SET_NO = 999
REV_AT_EPOCH   = 367
BSTAR          = .66018E-3
MEAN_MOTION_DOT = .131851E-2
MEAN_MOTION_DDOT = 0

CCSDS_OMM_VERS = 2.0
CREATION_DATE  = 
ORIGINATOR     = 

OBJECT_NAME    = STARLINK-36727
OBJECT_ID      = 2026-034AB
CENTER_NAME    = EARTH
REF_FRAME      = TEME
TIME_SYSTEM    = UTC
MEAN_ELEMENT_THEORY = SGP/SGP4

EPOCH          = 2026-03-08T00:08:33.474336
MEAN_MOTION    = 15.80908440
ECCENTRICITY   = .000091
INCLINATION    = 53.1602
RA_OF_ASC_NODE = 219.5715
ARG_OF_PERICENTER = 48.3138
MEAN_ANOMALY   = 311.7962

EPHEMERIS_TYPE = 0
CLASSIFICATION_TYPE = U
NORAD_CAT_ID   = 67875
ELEMENT_SET_NO = 999
REV_AT_EPOCH   = 367
BSTAR          = .74616E-3
MEAN_MOTION_DOT = .149385E-2
MEAN_MOTION_DDOT = 0

CCSDS_OMM_VERS = 2.0
CREATION_DATE  = 
ORIGINATOR     = 

OBJECT_NAME    = STARLINK-36743
OBJECT_ID      = 2026-034AC
CENTER_NAME    = EARTH
REF_FRAME      = TEME
TIME_SYSTEM    = UTC
MEAN_ELEMENT_THEORY = SGP/SGP4

EPOCH          = 2026-03-08T00:07:28.531776
MEAN_MOTION    = 15.80947390
ECCENTRICITY   = .000121
INCLINATION    = 53.1603
RA_OF_ASC_NODE = 219.5664
ARG_OF_PERICENTER = 36.1478
MEAN_ANOMALY   = 323.9626

EPHEMERIS_TYPE = 0
CLASSIFICATION_TYPE = U
NORAD_CAT_ID   = 67876
ELEMENT_SET_NO = 999
REV_AT_EPOCH   = 367
BSTAR          = .11276E-2
MEAN_MOTION_DOT = .228621E-2
MEAN_MOTION_DDOT = 0

