STARLINK-36738          
1 67865U 26034R   26067.01344640  .00213304  00000+0  10549-2 0  9993
2 67865  53.1595 219.6239 0002141  34.7837 325.3325 15.80931722  3671
STARLINK-36780          
1 67866U 26034S   26067.01269512  .00213524  00000+0  10556-2 0  9990
2 67866  53.1599 219.6175 0002507  32.4318 327.6858 15.80938632  3673
STARLINK-36761          
1 67867U 26034T   26067.13838515  .00305509  00000+0  14927-2 0  9990
2 67867  53.1596 218.9793 0001073  93.3571 266.7575 15.80938750  3695
STARLINK-36762          
1 67868U 26034U   26067.01119265  .00284769  00000+0  13930-2 0  9999
2 67868  53.1596 219.6083 0001231  38.7674 321.3437 15.80970639  3674
STARLINK-36779          
1 67869U 26034V   26066.94721944  .00352040  00000+0  17050-2 0  9999
2 67869  53.1596 219.9195 0001207  63.2475 296.8672 15.81005295  3661
STARLINK-36770          
1 67870U 26034W   26067.00893281  .00254587  00000+0  12483-2 0  9995
2 67870  53.1600 219.5917 0001659  82.7725 277.3486 15.81002856  3670
STARLINK-36769          
1 67871U 26034X   26066.88325845  .00369159  00000+0  17837-2 0  9997
2 67871  53.1599 220.2313 0000172 110.0895 250.0146 15.81008840  3657
STARLINK-36786          
1 67872U 26034Y   26067.13463586  .00342321  00000+0  16638-2 0  9992
2 67872  53.1597 218.9539 0001391  56.1524 303.9631 15.80954466  3697
STARLINK-36783          
1 67873U 26034Z   26066.94421512  .00365683  00000+0  17662-2 0  9998
2 67873  53.1597 219.8983 0001292  48.8890 311.2244 15.81029525  3664
STARLINK-36730          
1 67874U 26034AA  26067.00669193  .00131851  00000+0  66018-3 0  9994
2 67874  53.1601 219.5772 0000678  93.0388 267.0712 15.80913216  3672
STARLINK-36727          
1 67875U 26034AB  26067.00594299  .00149385  00000+0  74616-3 0  9993
2 67875  53.1602 219.5715 0000910  48.3138 311.7962 15.80908440  3673
STARLINK-36743          
1 67876U 26034AC  26067.00519134  .00228621  00000+0  11276-2 0  9992
2 67876  53.1603 219.5664 0001210  36.1478 323.9626 15.80947390  3673
